CUBEBUG-2 (LO-74)       
1 39440U 13066AA  26203.29468735  .00002604  00000+0  24278-3 0  9990
2 39440  97.8917 152.4311 0055448 271.2491  88.2376 14.94001241682233
FUNCUBE-1 (AO-73)       
1 39444U 13066AE  26202.85372639  .00007711  00000+0  47205-3 0  9991
2 39444  97.8301 175.0373 0038113  86.0733 274.4851 15.09885034684892
UWE-3                   
1 39446U 13066AG  26202.83639828  .00003114  00000+0  26825-3 0  9995
2 39446  97.8727 159.1532 0047765 201.8178 158.1010 14.97233886682766
UNISAT-6                
1 40012U 14033C   26203.22773730  .00001765  00000+0  19329-3 0  9997
2 40012  97.7918 355.3341 0043706 314.1378  45.6247 14.88387173651371
DUCHIFAT-1              
1 40021U 14033M   26202.72807689  .00164629  00000+0  12190-2 0  9999
2 40021  98.0415 266.9561 0003625 228.7731 131.3218 15.72417512661161
QB50P1                  
1 40025U 14033R   26203.27215813  .00008312  00000+0  40319-3 0  9997
2 40025  98.0974 216.8915 0010556 104.1834 256.0572 15.18741121658355
LILACSAT-2              
1 40908U 15049K   26203.28191830  .00020795  00000+0  33976-3 0  9998
2 40908  97.4630 241.4779 0008629 120.8511 239.3591 15.52543144601192
FOX-1A (AO-85)          
1 40967U 15058D   26203.29670670  .00003414  00000+0  30486-3 0  9990
2 40967  64.7739 169.8597 0132969  43.1199 318.0235 14.91122011118808
CAS-2T & KS-1Q          
1 41847U 16066G   26203.14574582  .00000594  00000+0  91966-4 0  9994
2 41847  98.3808 278.4820 0341866  23.6956 337.9565 14.44778706509844
RADFXSAT (FOX-1B)       
1 43017U 17073E   26203.12913814  .00007226  00000+0  31369-3 0  9996
2 43017  97.4661  69.6322 0148581 207.3582 151.9771 15.13124846470672
DIWATA-2B               
1 43678U 18084H   26203.24595259  .00001130  00000+0  94637-4 0  9990
2 43678  98.1224  40.9909 0012389  62.5735 297.6746 15.00578707421477
ES'HAIL 2               
1 43700U 18090A   26203.26296670  .00000147  00000+0  00000+0 0  9993
2 43700   0.0093  13.6727 0002485 141.0175 265.7889  1.00273507 28024
FOX-1CLIFF (AO-95)      
1 43770U 18099N   26203.13471558  .00012085  00000+0  45300-3 0  9995
2 43770  97.4363 263.2646 0007861 212.3554 147.7204 15.27374761418559
ITASAT                  
1 43786U 18099AE  26203.12690036  .00006157  00000+0  29324-3 0  9996
2 43786  97.4010 253.9464 0011320 223.4985 136.5358 15.19439192418215
JY1SAT (JO-97)          
1 43803U 18099AX  26203.12046716  .00019540  00000+0  58249-3 0  9994
2 43803  97.4108 266.0975 0007322 137.6573 222.5236 15.34679295418983
UWE-4                   
1 43880U 18111E   26202.75204970  .00035687  00000+0  67942-3 0  9990
2 43880  97.5823 132.7889 0007243 170.7550 189.3835 15.48106751416127
TIANYAN 01              
1 44881U 19093C   26203.24858812  .00000372  00000+0  48003-4 0  9998
2 44881  97.7512 274.6236 0012896 338.1348  21.9316 14.86567503356623
RS-44 & BREEZE-KM R/B   
1 44909U 19096E   26202.79546139  .00000011  00000+0 -70000-5 0  9991
2 44909  82.5240 316.7099 0218396  63.6323 298.7021 12.79748876306777
SALSAT                  
1 46495U 20068K   26203.00354601  .00007429  00000+0  25648-3 0  9995
2 46495  97.8867 208.2016 0009924 169.3819 190.7631 15.30238203320688
XW-3 (CAS-9)            
1 50466U 21131B   26203.24975216  .00000370  00000+0  12784-3 0  9992
2 50466  98.4981 295.4505 0004101  11.8619 348.2665 14.41385978240161
GREENCUBE (IO-117)      
1 53109U 22080E   26202.26867320 -.00000003  00000+0  00000+0 0  9998
2 53109  70.1384 286.3946 0009377 282.6707  77.2904  6.42583331 94253
UMKA 1 (RS40S)          
1 57172U 23091G   26203.22454504  .00005640  00000+0  25572-3 0  9994
2 57172  97.5028 261.7914 0012326   5.5532 354.5837 15.21173875169336
CUBESX-HSE 3 (RS42S)    
1 57178U 23091N   26203.25686213  .00014071  00000+0  45707-3 0  9997
2 57178  97.5070 269.3038 0009003 335.0192  25.0612 15.32004264169799
MONITOR-3 (RS58S)       
1 57180U 23091Q   26203.29520309  .00010455  00000+0  37942-3 0  9991
2 57180  97.5062 267.0109 0010256 343.7140  16.3769 15.28465948169654
MONITOR-4 (RS57S)       
1 57182U 23091S   26203.27229566  .00010823  00000+0  39162-3 0  9997
2 57182  97.5055 266.9609 0010273 344.0585  16.0330 15.28552951169659
MONITOR-2 (RS39S)       
1 57184U 23091U   26203.29062235  .00004586  00000+0  22091-3 0  9991
2 57184  97.5051 261.3491 0010670 359.7951   0.3277 15.19197494169288
SVYATOBOR 1 (RS60S)     
1 57187U 23091X   26203.25120983  .00009512  00000+0  35979-3 0  9998
2 57187  97.5068 267.2715 0008025 338.2806  21.8092 15.27142504169661
VIZARD-METEO (RS38S)    
1 57189U 23091Z   26203.24857889  .00017641  00000+0  48853-3 0  9998
2 57189  97.5070 273.4594 0005195 308.7320  51.3459 15.37029018170075
POLYTECH-UNIVERSE 3 (R*)
1 57191U 23091AB  26203.24715131  .00005039  00000+0  24053-3 0  9998
2 57191  97.5027 260.8101 0015394  14.0853 346.0807 15.19410694169279
UTMN 2 (RS27S)          
1 57203U 23091AP  26203.25560513  .00013708  00000+0  43448-3 0  9996
2 57203  97.5066 270.9788 0006141 321.4456  38.6347 15.32818433169915
